[{"OBJECT_NAME":"ONEWEB-0515","OBJECT_ID":"2022-138W","EPOCH":"2026-03-09T15:36:16.174944","MEAN_MOTION":13.2077114,"ECCENTRICITY":0.0002365,"INCLINATION":87.9173,"RA_OF_ASC_NODE":294.2992,"ARG_OF_PERICENTER":70.7328,"MEAN_ANOMALY":289.4061,"EPHEMERIS_TYPE":0,"CLASSIFICATION_TYPE":"U","NORAD_CAT_ID":54133,"ELEMENT_SET_NO":999,"REV_AT_EPOCH":16616,"BSTAR":-0.00026566,"MEAN_MOTION_DOT":-9.5e-7,"MEAN_MOTION_DDOT":0},{"OBJECT_NAME":"NOAA 17 DEB","OBJECT_ID":"2002-032BC","EPOCH":"2026-03-09T17:05:34.355616","MEAN_MOTION":13.65175691,"ECCENTRICITY":0.03220336,"INCLINATION":98.405,"RA_OF_ASC_NODE":154.3151,"ARG_OF_PERICENTER":44.7429,"MEAN_ANOMALY":317.9217,"EPHEMERIS_TYPE":0,"CLASSIFICATION_TYPE":"U","NORAD_CAT_ID":48719,"ELEMENT_SET_NO":999,"REV_AT_EPOCH":24780,"BSTAR":0.00048296146,"MEAN_MOTION_DOT":5.24e-6,"MEAN_MOTION_DDOT":0}]
